CCSDS_OMM_VERS = 2.0
CREATION_DATE  = 
ORIGINATOR     = 

OBJECT_NAME    = UNKNOWN
OBJECT_ID      = 
CENTER_NAME    = EARTH
REF_FRAME      = TEME
TIME_SYSTEM    = UTC
MEAN_ELEMENT_THEORY = SGP/SGP4

EPOCH          = 2026-01-02T06:56:57.785280
MEAN_MOTION    = 12.96025434
ECCENTRICITY   = .00426526
INCLINATION    = 90.2495
RA_OF_ASC_NODE = 9.5033
ARG_OF_PERICENTER = 226.8325
MEAN_ANOMALY   = 132.9228

EPHEMERIS_TYPE = 0
CLASSIFICATION_TYPE = U
NORAD_CAT_ID   = 270057
ELEMENT_SET_NO = 999
REV_AT_EPOCH   = 28865
BSTAR          = .22341652E-2
MEAN_MOTION_DOT = .645E-5
MEAN_MOTION_DDOT = 0

CCSDS_OMM_VERS = 2.0
CREATION_DATE  = 
ORIGINATOR     = 

OBJECT_NAME    = UNKNOWN
OBJECT_ID      = 
CENTER_NAME    = EARTH
REF_FRAME      = TEME
TIME_SYSTEM    = UTC
MEAN_ELEMENT_THEORY = SGP/SGP4

EPOCH          = 2026-01-07T17:34:13.433952
MEAN_MOTION    = 12.97946351
ECCENTRICITY   = .00295848
INCLINATION    = 90.2335
RA_OF_ASC_NODE = 1.8103
ARG_OF_PERICENTER = 101.1318
MEAN_ANOMALY   = 259.3132

EPHEMERIS_TYPE = 0
CLASSIFICATION_TYPE = U
NORAD_CAT_ID   = 270058
ELEMENT_SET_NO = 999
REV_AT_EPOCH   = 28972
BSTAR          = .27299482E-2
MEAN_MOTION_DOT = .807E-5
MEAN_MOTION_DDOT = 0

CCSDS_OMM_VERS = 2.0
CREATION_DATE  = 
ORIGINATOR     = 

OBJECT_NAME    = UNKNOWN
OBJECT_ID      = 
CENTER_NAME    = EARTH
REF_FRAME      = TEME
TIME_SYSTEM    = UTC
MEAN_ELEMENT_THEORY = SGP/SGP4

EPOCH          = 2025-12-22T18:58:06.043872
MEAN_MOTION    = 12.23002029
ECCENTRICITY   = .01291541
INCLINATION    = 73.9980
RA_OF_ASC_NODE = 32.2932
ARG_OF_PERICENTER = 21.7270
MEAN_ANOMALY   = 338.9176

EPHEMERIS_TYPE = 0
CLASSIFICATION_TYPE = U
NORAD_CAT_ID   = 270059
ELEMENT_SET_NO = 999
REV_AT_EPOCH   = 27121
BSTAR          = .66811838E-3
MEAN_MOTION_DOT = .59E-6
MEAN_MOTION_DDOT = 0

CCSDS_OMM_VERS = 2.0
CREATION_DATE  = 
ORIGINATOR     = 

OBJECT_NAME    = UNKNOWN
OBJECT_ID      = 
CENTER_NAME    = EARTH
REF_FRAME      = TEME
TIME_SYSTEM    = UTC
MEAN_ELEMENT_THEORY = SGP/SGP4

EPOCH          = 2026-01-07T14:10:59.630016
MEAN_MOTION    = 13.50087028
ECCENTRICITY   = .05305238
INCLINATION    = 30.0972
RA_OF_ASC_NODE = 331.2698
ARG_OF_PERICENTER = 322.0264
MEAN_ANOMALY   = 34.4015

EPHEMERIS_TYPE = 0
CLASSIFICATION_TYPE = U
NORAD_CAT_ID   = 270060
ELEMENT_SET_NO = 999
REV_AT_EPOCH   = 29952
BSTAR          = .60500775E-2
MEAN_MOTION_DOT = .9485E-4
MEAN_MOTION_DDOT = 0

CCSDS_OMM_VERS = 2.0
CREATION_DATE  = 
ORIGINATOR     = 

OBJECT_NAME    = UNKNOWN
OBJECT_ID      = 
CENTER_NAME    = EARTH
REF_FRAME      = TEME
TIME_SYSTEM    = UTC
MEAN_ELEMENT_THEORY = SGP/SGP4

EPOCH          = 2026-01-06T08:23:06.879552
MEAN_MOTION    = 12.22071988
ECCENTRICITY   = .04996041
INCLINATION    = 82.0669
RA_OF_ASC_NODE = 52.5223
ARG_OF_PERICENTER = 67.8758
MEAN_ANOMALY   = 297.4556

EPHEMERIS_TYPE = 0
CLASSIFICATION_TYPE = U
NORAD_CAT_ID   = 270061
ELEMENT_SET_NO = 999
REV_AT_EPOCH   = 27197
BSTAR          = .12252114E-2
MEAN_MOTION_DOT = .206E-5
MEAN_MOTION_DDOT = 0

CCSDS_OMM_VERS = 2.0
CREATION_DATE  = 
ORIGINATOR     = 

OBJECT_NAME    = UNKNOWN
OBJECT_ID      = 
CENTER_NAME    = EARTH
REF_FRAME      = TEME
TIME_SYSTEM    = UTC
MEAN_ELEMENT_THEORY = SGP/SGP4

EPOCH          = 2026-01-07T03:26:13.134912
MEAN_MOTION    = 14.24232120
ECCENTRICITY   = .00358752
INCLINATION    = 98.8460
RA_OF_ASC_NODE = 319.6210
ARG_OF_PERICENTER = 350.4964
MEAN_ANOMALY   = 9.5532

EPHEMERIS_TYPE = 0
CLASSIFICATION_TYPE = U
NORAD_CAT_ID   = 270063
ELEMENT_SET_NO = 999
REV_AT_EPOCH   = 31766
BSTAR          = .19765981E-3
MEAN_MOTION_DOT = .413E-5
MEAN_MOTION_DDOT = 0

CCSDS_OMM_VERS = 2.0
CREATION_DATE  = 
ORIGINATOR     = 

OBJECT_NAME    = UNKNOWN
OBJECT_ID      = 
CENTER_NAME    = EARTH
REF_FRAME      = TEME
TIME_SYSTEM    = UTC
MEAN_ELEMENT_THEORY = SGP/SGP4

EPOCH          = 2026-01-06T21:23:27.142368
MEAN_MOTION    = 14.47509221
ECCENTRICITY   = .00115853
INCLINATION    = 97.9874
RA_OF_ASC_NODE = 236.9822
ARG_OF_PERICENTER = 26.7287
MEAN_ANOMALY   = 333.4502

EPHEMERIS_TYPE = 0
CLASSIFICATION_TYPE = U
NORAD_CAT_ID   = 270064
ELEMENT_SET_NO = 999
REV_AT_EPOCH   = 32213
BSTAR          = .19185583E-3
MEAN_MOTION_DOT = .665E-5
MEAN_MOTION_DDOT = 0

CCSDS_OMM_VERS = 2.0
CREATION_DATE  = 
ORIGINATOR     = 

OBJECT_NAME    = UNKNOWN
OBJECT_ID      = 
CENTER_NAME    = EARTH
REF_FRAME      = TEME
TIME_SYSTEM    = UTC
MEAN_ELEMENT_THEORY = SGP/SGP4

EPOCH          = 2026-01-07T18:17:47.724288
MEAN_MOTION    = 12.22968726
ECCENTRICITY   = .01320095
INCLINATION    = 74.0020
RA_OF_ASC_NODE = 13.4812
ARG_OF_PERICENTER = 359.7155
MEAN_ANOMALY   = 0.3784

EPHEMERIS_TYPE = 0
CLASSIFICATION_TYPE = U
NORAD_CAT_ID   = 270065
ELEMENT_SET_NO = 999
REV_AT_EPOCH   = 27310
BSTAR          = .42892878E-3
MEAN_MOTION_DOT = .32E-6
MEAN_MOTION_DDOT = 0

CCSDS_OMM_VERS = 2.0
CREATION_DATE  = 
ORIGINATOR     = 

OBJECT_NAME    = UNKNOWN
OBJECT_ID      = 
CENTER_NAME    = EARTH
REF_FRAME      = TEME
TIME_SYSTEM    = UTC
MEAN_ELEMENT_THEORY = SGP/SGP4

EPOCH          = 2026-01-06T03:04:58.759968
MEAN_MOTION    = 14.62860261
ECCENTRICITY   = .00101876
INCLINATION    = 32.2194
RA_OF_ASC_NODE = 165.7534
ARG_OF_PERICENTER = 251.1846
MEAN_ANOMALY   = 108.7696

EPHEMERIS_TYPE = 0
CLASSIFICATION_TYPE = U
NORAD_CAT_ID   = 270066
ELEMENT_SET_NO = 999
REV_AT_EPOCH   = 32676
BSTAR          = .14253667E-3
MEAN_MOTION_DOT = .777E-5
MEAN_MOTION_DDOT = 0

CCSDS_OMM_VERS = 2.0
CREATION_DATE  = 
ORIGINATOR     = 

OBJECT_NAME    = UNKNOWN
OBJECT_ID      = 
CENTER_NAME    = EARTH
REF_FRAME      = TEME
TIME_SYSTEM    = UTC
MEAN_ELEMENT_THEORY = SGP/SGP4

EPOCH          = 2026-01-06T06:44:04.393824
MEAN_MOTION    = 12.96470235
ECCENTRICITY   = .00299468
INCLINATION    = 90.2462
RA_OF_ASC_NODE = 10.1437
ARG_OF_PERICENTER = 183.5637
MEAN_ANOMALY   = 176.5274

EPHEMERIS_TYPE = 0
CLASSIFICATION_TYPE = U
NORAD_CAT_ID   = 270067
ELEMENT_SET_NO = 999
REV_AT_EPOCH   = 28921
BSTAR          = .71919073E-3
MEAN_MOTION_DOT = .214E-5
MEAN_MOTION_DDOT = 0

CCSDS_OMM_VERS = 2.0
CREATION_DATE  = 
ORIGINATOR     = 

OBJECT_NAME    = UNKNOWN
OBJECT_ID      = 
CENTER_NAME    = EARTH
REF_FRAME      = TEME
TIME_SYSTEM    = UTC
MEAN_ELEMENT_THEORY = SGP/SGP4

EPOCH          = 2026-01-07T14:14:39.776352
MEAN_MOTION    = 12.67999983
ECCENTRICITY   = .07698108
INCLINATION    = 73.1560
RA_OF_ASC_NODE = 120.7309
ARG_OF_PERICENTER = 109.3209
MEAN_ANOMALY   = 259.2683

EPHEMERIS_TYPE = 0
CLASSIFICATION_TYPE = U
NORAD_CAT_ID   = 270068
ELEMENT_SET_NO = 999
REV_AT_EPOCH   = 28200
BSTAR          = .47053751E-3
MEAN_MOTION_DOT = .283E-5
MEAN_MOTION_DDOT = 0

CCSDS_OMM_VERS = 2.0
CREATION_DATE  = 
ORIGINATOR     = 

OBJECT_NAME    = UNKNOWN
OBJECT_ID      = 
CENTER_NAME    = EARTH
REF_FRAME      = TEME
TIME_SYSTEM    = UTC
MEAN_ELEMENT_THEORY = SGP/SGP4

EPOCH          = 2026-01-07T06:05:55.240512
MEAN_MOTION    = 14.11835167
ECCENTRICITY   = .00640591
INCLINATION    = 46.9538
RA_OF_ASC_NODE = 203.4549
ARG_OF_PERICENTER = 85.6329
MEAN_ANOMALY   = 275.1853

EPHEMERIS_TYPE = 0
CLASSIFICATION_TYPE = U
NORAD_CAT_ID   = 270069
ELEMENT_SET_NO = 999
REV_AT_EPOCH   = 31173
BSTAR          = .39115924E-2
MEAN_MOTION_DOT = .719E-4
MEAN_MOTION_DDOT = 0

CCSDS_OMM_VERS = 2.0
CREATION_DATE  = 
ORIGINATOR     = 

OBJECT_NAME    = UNKNOWN
OBJECT_ID      = 
CENTER_NAME    = EARTH
REF_FRAME      = TEME
TIME_SYSTEM    = UTC
MEAN_ELEMENT_THEORY = SGP/SGP4

EPOCH          = 2026-01-07T18:14:09.632544
MEAN_MOTION    = 13.50182188
ECCENTRICITY   = .072158
INCLINATION    = 62.8009
RA_OF_ASC_NODE = 15.2425
ARG_OF_PERICENTER = 349.5788
MEAN_ANOMALY   = 9.0926

EPHEMERIS_TYPE = 0
CLASSIFICATION_TYPE = U
NORAD_CAT_ID   = 270070
ELEMENT_SET_NO = 999
REV_AT_EPOCH   = 30077
BSTAR          = .7628297E-3
MEAN_MOTION_DOT = .2496E-4
MEAN_MOTION_DDOT = 0

CCSDS_OMM_VERS = 2.0
CREATION_DATE  = 
ORIGINATOR     = 

OBJECT_NAME    = UNKNOWN
OBJECT_ID      = 
CENTER_NAME    = EARTH
REF_FRAME      = TEME
TIME_SYSTEM    = UTC
MEAN_ELEMENT_THEORY = SGP/SGP4

EPOCH          = 2025-12-20T21:34:06.913632
MEAN_MOTION    = 11.27809924
ECCENTRICITY   = .01476511
INCLINATION    = 64.7966
RA_OF_ASC_NODE = 213.9083
ARG_OF_PERICENTER = 62.8664
MEAN_ANOMALY   = 298.7231

EPHEMERIS_TYPE = 0
CLASSIFICATION_TYPE = U
NORAD_CAT_ID   = 270071
ELEMENT_SET_NO = 999
REV_AT_EPOCH   = 24997
BSTAR          = .71513351E-3
MEAN_MOTION_DOT = -.17E-6
MEAN_MOTION_DDOT = 0

CCSDS_OMM_VERS = 2.0
CREATION_DATE  = 
ORIGINATOR     = 

OBJECT_NAME    = UNKNOWN
OBJECT_ID      = 
CENTER_NAME    = EARTH
REF_FRAME      = TEME
TIME_SYSTEM    = UTC
MEAN_ELEMENT_THEORY = SGP/SGP4

EPOCH          = 2026-01-03T06:10:06.978144
MEAN_MOTION    = 11.27763595
ECCENTRICITY   = .01512602
INCLINATION    = 64.8101
RA_OF_ASC_NODE = 201.7071
ARG_OF_PERICENTER = 41.8675
MEAN_ANOMALY   = 319.3702

EPHEMERIS_TYPE = 0
CLASSIFICATION_TYPE = U
NORAD_CAT_ID   = 270072
ELEMENT_SET_NO = 999
REV_AT_EPOCH   = 25140
BSTAR          = .73167607E-3
MEAN_MOTION_DOT = -.17E-6
MEAN_MOTION_DDOT = 0

CCSDS_OMM_VERS = 2.0
CREATION_DATE  = 
ORIGINATOR     = 

OBJECT_NAME    = UNKNOWN
OBJECT_ID      = 
CENTER_NAME    = EARTH
REF_FRAME      = TEME
TIME_SYSTEM    = UTC
MEAN_ELEMENT_THEORY = SGP/SGP4

EPOCH          = 2026-01-07T09:39:52.254432
MEAN_MOTION    = 13.23076272
ECCENTRICITY   = .0153612
INCLINATION    = 100.3441
RA_OF_ASC_NODE = 70.4341
ARG_OF_PERICENTER = 88.3351
MEAN_ANOMALY   = 273.5354

EPHEMERIS_TYPE = 0
CLASSIFICATION_TYPE = U
NORAD_CAT_ID   = 270073
ELEMENT_SET_NO = 999
REV_AT_EPOCH   = 29505
BSTAR          = .12078382E-2
MEAN_MOTION_DOT = .498E-5
MEAN_MOTION_DDOT = 0

